#dP2023  7 20 12  0  0.00000000      96 __u+U ITR00 EXT  IAC
## 2271 388800.00000000   900.00000000 60145 0.5000000000000
+  118   C06C07C08C09C10C11C12C13C14C16C19C20C21C22C23C24C25
+        C26C27C28C29C30C32C33C34C35C36C37C38C39C40C41C42C43
+        C44C45C46E02E03E04E05E07E08E09E10E11E12E13E14E15E18
+        E19E21E24E25E26E27E30E31E34E36G01G02G03G04G05G06G07
+        G08G09G10G11G12G13G14G15G16G17G18G19G20G21G22G23G24
+        G25G26G27G28G29G30G31G32J02J03J04R01R02R03R04R05R07
+        R08R09R11R12R13R14R15R16R17R18R19R20R21R22R24R25  0
++        12  8 10 10  9  8  7  9 12 10  9 10  9  7  7  8  8
++         7 10  9  9  7  8  9  7  8  8  8  9 10 10  9  9  8
++         9  8  9  8  8  8  7  7  7  8  7  7  8  7  7  8  7
++         7  7  7  7  8  7  7  7  7  7  7  7  7  8  8  7  7
++         7  7  7  8  7  7  9  7  7  8  8  7  8  7  7  8  8
++         7  7  8  7  7  7  7  7 10  9  9  9  9  8  8  7  7
++         6  8  8  8  8  8  9  8  8  8  8  9  9  7  9  8  0
%c M  cc GPS ccc cccc cccc cccc cccc ccccc ccccc ccccc ccccc
%c cc cc ccc ccc cccc cccc cccc cccc ccccc ccccc ccccc ccccc
%f  0.0000000  0.000000000  0.00000000000  0.000000000000000
%f  0.0000000  0.000000000  0.00000000000  0.000000000000000
%i    0    0    0    0      0      0      0      0         0
%i    0    0    0    0      0      0      0      0         0
/* IAC                                ULTRA-RAPID PREDICTION
/* S/V CLOCKS ARE ALIGNED TO GNSS TIME                      
/* G:C1WC2W R:C1PC2P E:C1XC5X C:C2IC6I J:C1CC2S             
/* PCV:IGS20_2247 OL/AL:FES2004  NONE     YN ORB:CoN CLK:CoN
*  2023 07 20 12 45  0.00000000
PC06  -2832.329389  28296.654062  31245.827291    543.044828
PC07 -15970.714111  30296.894503 -24632.051819   -351.554568
PC08  -9860.431247  40750.638037  -3223.454442    421.467175
PC09   6094.824712  33102.962737  26156.591737    393.750304
PC10 -10044.319101  30296.040750 -27464.681085   -120.115557
PC11 -25168.245257  -9829.059563  -6974.509844    735.993641
PC12 -17466.785155 -18775.081547  11059.474046    803.137129
PC13  -4908.674524  41596.293079   3367.383155    319.017802
PC14 -23110.033113   1408.087484 -15612.403463     88.836239
PC16  -3373.343042  27497.446072  32118.280996     -1.500395
PC19  25260.599451  -9022.491951   7666.227456   -943.123499
PC20  18357.249690   5153.295928  20370.802808    422.360385
PC21    243.521291 -17391.622404 -21805.397699   -937.284944
PC22  17959.603239 -18747.747364 -10198.578362   -387.959665
PC23  -9909.342689  21954.102754  14102.944393   -936.242782
PC24 -12949.595612 -17355.578958  17610.737687    193.460048
PC25 -15967.553230   4681.881786  22395.018896    171.900226
PC26  -3469.348543 -27494.538075   3420.193694   -151.412296
PC27   9948.964989  19558.530595 -17266.941567    172.339168
PC28  -8157.001746  13706.490471 -22897.964401    128.540055
PC29  23632.564179    651.131058  14814.723181    149.782267
PC30  23745.844554  14447.173844  -2589.712504     -2.434164
PC32   -238.557668  17470.245107  21774.359496   -537.654120
PC33 -25225.021440   9133.016974  -7726.356519   -917.560694
PC34 -24270.137133 -13701.168754   1221.062377    218.920857
PC35   8121.499438 -13825.606537  22826.150998    584.778185
PC36  16140.710624  -3434.205942 -22474.361631   -319.465753
PC37   2174.397656  27698.718304  -2463.654795   -795.442533
PC38 -13578.011991  38291.931102 -10906.736263     92.798316
PC39  -8784.917555  23385.973102  34038.406609     -3.901608
PC40 -23649.791945  24460.779831 -25052.831265    -30.050984
PC41 -18392.617019  18698.232059   9600.222173   -899.890590
PC42 -17361.636571  -6219.219105 -20913.745457   -605.739251
PC43 -24020.235500  -1299.842968 -14144.626077     31.557154
PC44 -10436.574415 -19236.400834  17283.566030    174.463909
PC45   9564.579750 -22338.481896 -13731.686967     -4.084641
PC46  13388.855680  16000.617444 -18509.757730    -70.285325
PE02 -20112.155517  19144.892147  10241.890682     50.845263
PE03 -23799.120840   9738.524181  14674.417214    -37.848544
PE04   4632.816173 -16706.315316 -23983.625183   -170.870138
PE05 -29259.947308  -3015.046907  -3336.272275      1.331080
PE07  17253.767505  14073.104433  19504.398232    -61.312808
PE08  -5080.150774  16526.030222  24029.707260   -117.341330
PE09 -17154.478259 -13983.422117 -19661.291154    -91.202717
PE10  -9591.060878 -27045.470760   7268.201378   -549.907027
PE11 -15922.502206 -24740.508305  -3226.494073   2531.565477
PE12  -2178.856803 -25037.401374  15618.549733   -625.558408
PE13  15579.421995  25047.813698   2470.314429    -19.333631
PE14  19199.123865  12956.665348 -12870.499193    287.584700
PE15   1962.193144  24859.438492 -15950.900635    -38.569642
PE18 -30601.553603  -4345.007231    585.507681    317.645910
PE19  25495.922482  -8090.909546 -12665.719737  -2034.715825
PE21  19111.202207  -1498.316198 -22548.275692   -541.811651
PE24  -6475.057655 -18563.233363  22124.597035   -219.876346
PE25 -18990.673629   1119.504568  22687.629328   -608.585757
PE26  19923.231732   9791.260097  19572.450463    168.497750
PE27   7033.818984  17992.196398 -22418.297368   -103.864284
PE30  -9484.963760  26668.690032  -8650.645870   -350.785497
PE31   9038.846489 -26677.425978   9108.019336     -0.800692
PE34 -12604.884307  10157.958651 -24792.273520    -57.084319
PE36 -19896.047680 -10565.770890 -19204.455126    -88.717693
PG01  17081.076137   6484.744527  19062.421229    172.117221
PG02  19196.992649  10985.095722  15320.224224   -574.243910
PG03  18296.048958  -5746.669958  18181.439041   -224.606605
PG04  26440.249199    125.543377  -3107.778212    101.163165
PG05 -11264.081255 -10529.523376 -21798.451952   -135.613979
PG06  -3535.698452 -23759.365118  11288.553766    576.086587
PG07  11391.067916 -10680.926798 -20962.561083    119.710583
PG08  24520.983424   6582.515697  -8533.691315   -133.136732
PG09  22524.093648  -7720.132749 -11888.610790   -107.590673
PG10  -9944.341868  23577.875277   6645.415751    -45.900516
PG11 -12780.586292 -23088.836629  -3190.803599   -284.087336
PG12 -17689.439290   1044.341487  19483.813096   -402.959692
PG13 -18526.555512 -13310.652649 -13963.984739    549.549980
PG14  12849.862308 -22888.687335   3451.771050    128.198205
PG15 -25208.080159  -3907.910680  -8322.755230     59.781774
PG16   7065.055152  14757.030414 -21137.728150   -478.567986
PG17   7939.862061 -13899.179796  21642.435703    721.326130
PG18  -9275.520363  13427.580072 -20920.311229   -352.481998
PG19   -950.317119 -15083.312542  21651.638524    346.419959
PG20  -5041.631651 -19587.439851 -17274.363734    421.670255
PG21  19420.374525  13900.566706  13041.934169    151.925107
PG22   4626.795778  15662.589859  21427.460388    515.443620
PG23 -16668.416329  19709.540764  -5876.934494     45.344574
PG24 -19408.270881  -9664.810830  15248.093003   -263.828913
PG25 -18794.890630  14187.173793  11709.054010    457.254713
PG26   -565.706175  22453.650201 -14023.218431    235.876225
PG27  15816.815321  12839.665599 -17509.222469     -6.801498
PG28   2717.392356  23167.052894  12685.375278     81.769170
PG29 -23733.230593   4573.592303 -11180.555890   -605.962638
PG30   4538.504491 -19424.737334 -17289.129864   -502.894199
PG31  10053.222855  24227.957353   2074.216913   -220.398560
PG32  -3902.364523  15033.810514  21711.601142   -524.837345
PJ02 -34368.086327  24046.701529   9878.770565     -1.573987
PJ03 -21839.363530  19980.042014 -25410.990793     -0.214389
PJ04 -26025.504565  33242.368364   9426.880391     97.205589
PR01  14160.227843   4930.658149  20631.504392     61.771253
PR02  24058.719443  -5286.533837   6793.562678    -22.598195
PR03  19555.882111 -12541.096351 -10554.423619     81.845658
PR04   4536.325732 -12404.661653 -21796.920773    195.599432
PR05 -12970.687042  -5789.602125 -21171.088716    116.060333
PR07 -18915.422794  12718.308749  11439.904290     60.591219
PR08  -4139.926443  12508.755059  21892.755099    -71.743725
PR09 -11723.288764   3478.979463  22418.272658    132.200294
PR11  -2618.636333  25236.553148  -2714.893251   -109.340511
PR12   6681.304701  15614.585028 -18996.185226     29.296091
PR13  11284.997329  -1078.423547 -22857.364879    -37.285697
PR14   9483.615639 -19811.627590 -12932.566701     24.980319
PR15   2147.243964 -25086.764560   4085.984078     87.694663
PR16  -6577.764122 -15780.461161  18930.941579     16.865299
PR17   7878.424657  -7169.392889  23178.030656      1.465826
PR18  -6785.886714 -16565.408393  18160.516023     92.518038
PR19 -16881.883600 -18418.359568   5162.620969   -240.503416
PR20 -18916.200130  -8226.660661 -14979.674668    -96.908259
PR21  -6899.853884   7905.498255 -23255.214040    -24.109029
PR22   6902.115222  17378.986211 -17331.929706     98.408343
PR24  19205.476732   6843.849708  15325.425265    -17.287436
PR25  -8521.945780   6924.388750 -23023.578514     46.485861
EOF
